NORAD_CAT_ID,OBJECT_NAME,OBJECT_TYPE,EPOCH,MEAN_MOTION,ECCENTRICITY,INCLINATION,RA_OF_ASC_NODE,ARG_OF_PERICENTER,MEAN_ANOMALY,BSTAR,MEAN_MOTION_DOT,MEAN_MOTION_DDOT,TLE_LINE0,TLE_LINE1,TLE_LINE2,SEMIMAJOR_AXIS,PERIOD,APOGEE,PERIGEE,DECAYED
51135.0,STARLINK-3363,PAYLOAD,2023-08-16 00:38:27,15.08841558,0.0001347,53.2159,183.965,88.4714,271.6432,0.00010771,1.427e-05,0.0,0 STARLINK-3363,1 51135U 22005AH  23228.02670974  .00001427  00000-0  10771-3 0  9999,2 51135  53.2159 183.9650 0001347  88.4714 271.6432 15.08841558 88445,6917.876,95.437,540.672,538.809,0.0
51135.0,STARLINK-3363,PAYLOAD,2023-08-17 02:04:38,15.08839442,0.0001409,53.2169,179.2065,98.5746,261.5406,5.9857e-05,6.65e-06,0.0,0 STARLINK-3363,1 51135U 22005AH  23229.08655283  .00000665  00000-0  59857-4 0  9994,2 51135  53.2169 179.2065 0001409  98.5746 261.5406 15.08839442 88606,6917.882,95.438,540.722,538.772,0.0
51135.0,STARLINK-3363,PAYLOAD,2023-08-18 03:30:48,15.08839167,0.0001333,53.2186,174.4521,99.0219,261.0924,2.3997e-05,9.4e-07,0.0,0 STARLINK-3363,1 51135U 22005AH  23230.14639607  .00000094  00000-0  23997-4 0  9997,2 51135  53.2186 174.4521 0001333  99.0219 261.0924 15.08839167 88767,6917.883,95.438,540.67,538.826,0.0
51135.0,STARLINK-3363,PAYLOAD,2023-08-19 06:32:21,15.08845047,0.0001359,53.2169,169.3942,101.7148,258.3997,0.00017448,2.49e-05,0.0,0 STARLINK-3363,1 51135U 22005AH  23231.27247068  .00002490  00000-0  17448-3 0  9993,2 51135  53.2169 169.3942 0001359 101.7148 258.3997 15.08845047 88930,6917.865,95.437,540.67,538.79,0.0
51135.0,STARLINK-3363,PAYLOAD,2023-08-19 12:53:54,15.08834253,0.0001035,53.2176,168.2045,91.5366,268.5745,-2.0068e-05,-6.07e-06,0.0,0 STARLINK-3363,1 51135U 22005AH  23231.53744108 -.00000607  00000-0 -20068-4 0  9992,2 51135  53.2176 168.2045 0001035  91.5366 268.5745 15.08834253 88974,6917.898,95.438,540.479,539.047,0.0
51135.0,STARLINK-3363,PAYLOAD,2023-08-20 04:47:47,15.08808892,0.0001248,53.2186,165.2283,95.7157,264.3977,0.00039771,6.042e-05,0.0,0 STARLINK-3363,1 51135U 22005AH  23232.19985154  .00006042  00000-0  39771-3 0  9990,2 51135  53.2186 165.2283 0001248  95.7157 264.3977 15.08808892 89079,6917.975,95.44,540.704,538.977,0.0
51135.0,STARLINK-3363,PAYLOAD,2023-08-20 19:06:14,15.08835991,0.0001245,53.2191,162.5523,82.426,277.6874,5.4313e-05,5.77e-06,0.0,0 STARLINK-3363,1 51135U 22005AH  23232.79600453  .00000577  00000-0  54313-4 0  9999,2 51135  53.2191 162.5523 0001245  82.4260 277.6874 15.08835991 89160,6917.893,95.438,540.619,538.896,0.0
51135.0,STARLINK-3363,PAYLOAD,2023-08-21 03:03:09,15.08852217,0.0001257,53.2174,161.0683,87.2319,272.8817,8.9776e-05,1.142e-05,0.0,0 STARLINK-3363,1 51135U 22005AH  23233.12719301  .00001142  00000-0  89776-4 0  9990,2 51135  53.2174 161.0683 0001257  87.2319 272.8817 15.08852217 89213,6917.843,95.437,540.578,538.838,0.0
51135.0,STARLINK-3363,PAYLOAD,2023-08-22 01:18:33,15.08842521,0.0001283,53.2169,156.9054,94.6156,265.4982,8.8906e-05,1.127e-05,0.0,0 STARLINK-3363,1 51135U 22005AH  23234.05455956  .00001127  00000-0  88906-4 0  9993,2 51135  53.2169 156.9054 0001283  94.6156 265.4982 15.08842521 89355,6917.873,95.437,540.625,538.85,0.0
51135.0,STARLINK-3363,PAYLOAD,2023-08-23 04:20:07,15.08847678,0.000141,53.2164,151.847,90.7449,269.3704,6.3653e-06,-1.87e-06,0.0,0 STARLINK-3363,1 51135U 22005AH  23235.18063770 -.00000187  00000-0  63653-5 0  9996,2 51135  53.2164 151.8470 0001410  90.7449 269.3704 15.08847678 89522,6917.857,95.437,540.697,538.747,0.0
51135.0,STARLINK-3363,PAYLOAD,2023-08-24 04:10:54,15.08848053,0.0001312,53.2173,147.3892,91.1928,268.9215,-5.6252e-06,-3.77e-06,0.0,0 STARLINK-3363,1 51135U 22005AH  23236.17423878 -.00000377  00000-0 -56252-5 0  9994,2 51135  53.2173 147.3892 0001312  91.1928 268.9215 15.08848053 88550,6917.856,95.437,540.628,538.813,0.0
51135.0,STARLINK-3363,PAYLOAD,2023-08-25 00:50:55,15.08845299,0.0001336,53.2174,143.523,82.4975,277.6169,1.5784e-05,-3.7e-07,0.0,0 STARLINK-3363,1 51135U 22005AH  23237.03536123 -.00000037  00000-0  15784-4 0  9994,2 51135  53.2174 143.5230 0001336  82.4975 277.6169 15.08845299 89809,6917.864,95.437,540.653,538.805,0.0
51135.0,STARLINK-3363,PAYLOAD,2023-08-25 04:01:41,15.08855366,0.0001367,53.2174,142.9285,92.7069,267.408,-8.2445e-05,-1.6e-05,0.0,0 STARLINK-3363,1 51135U 22005AH  23237.16783599 -.00001600  00000-0 -82445-4 0  9995,2 51135  53.2174 142.9285 0001367  92.7069 267.4080 15.08855366 89821,6917.833,95.437,540.644,538.753,0.0
51135.0,STARLINK-3363,PAYLOAD,2023-08-25 18:20:10,15.08837202,0.000139,53.2171,140.2524,88.6367,271.4784,3.3026e-05,2.38e-06,0.0,0 STARLINK-3363,1 51135U 22005AH  23237.76400717  .00000238  00000-0  33026-4 0  9994,2 51135  53.2171 140.2524 0001390  88.6367 271.4784 15.08837202 89911,6917.889,95.438,540.716,538.792,0.0
51135.0,STARLINK-3363,PAYLOAD,2023-08-25 21:30:56,15.08836622,0.000147,53.2176,139.658,88.2931,271.8229,3.0062e-05,1.9e-06,0.0,0 STARLINK-3363,1 51135U 22005AH  23237.89648761  .00000190  00000-0  30062-4 0  9995,2 51135  53.2176 139.6580 0001470  88.2931 271.8229 15.08836622 88813,6917.891,95.438,540.773,538.739,0.0
51135.0,STARLINK-3363,PAYLOAD,2023-08-26 03:52:28,15.08841196,0.0001401,53.2172,138.4684,86.5818,273.5334,6.2969e-05,7.14e-06,0.0,0 STARLINK-3363,1 51135U 22005AH  23238.16144438  .00000714  00000-0  62969-4 0  9991,2 51135  53.2172 138.4684 0001401  86.5818 273.5334 15.08841196 88852,6917.877,95.437,540.711,538.773,0.0
51135.0,STARLINK-3363,PAYLOAD,2023-08-26 21:21:43,15.0884278,0.0001606,53.2182,135.1963,87.0636,273.054,-6.4753e-05,-1.319e-05,0.0,0 STARLINK-3363,1 51135U 22005AH  23238.89008965 -.00001319  00000-0 -64753-4 0  9992,2 51135  53.2182 135.1963 0001606  87.0636 273.0540 15.08842780 88964,6917.872,95.437,540.848,538.626,0.0
51135.0,STARLINK-3363,PAYLOAD,2023-08-27 02:07:52,15.08844778,0.0001891,53.2189,134.3039,76.2982,283.8221,3.2851e-05,2.35e-06,0.0,0 STARLINK-3363,1 51135U 22005AH  23239.08880601  .00000235  00000-0  32851-4 0  9997,2 51135  53.2189 134.3039 0001891  76.2982 283.8221 15.08844778 90110,6917.866,95.437,541.039,538.423,0.0
51135.0,STARLINK-3363,PAYLOAD,2023-08-27 03:43:15,15.08844872,0.0001883,53.2189,134.0069,76.8305,283.2897,3.3725e-05,2.49e-06,0.0,0 STARLINK-3363,1 51135U 22005AH  23239.15504598  .00000249  00000-0  33725-4 0  9999,2 51135  53.2189 134.0069 0001883  76.8305 283.2897 15.08844872 89000,6917.865,95.437,541.033,538.428,0.0
51135.0,STARLINK-3363,PAYLOAD,2023-08-27 21:12:30,15.08837851,0.0001674,53.2186,130.736,85.0764,275.0419,8.2871e-05,1.031e-05,0.0,0 STARLINK-3363,1 51135U 22005AH  23239.88368965  .00001031  00000-0  82871-4 0  9991,2 51135  53.2186 130.7360 0001674  85.0764 275.0419 15.08837851 89113,6917.887,95.438,540.91,538.594,0.0
51135.0,STARLINK-3363,PAYLOAD,2023-08-28 09:55:35,15.08837752,0.0001522,53.2175,128.357,85.6016,274.515,6.0723e-05,6.78e-06,0.0,0 STARLINK-3363,1 51135U 22005AH  23240.41361036  .00000678  00000-0  60723-4 0  9992,2 51135  53.2175 128.3570 0001522  85.6016 274.5150 15.08837752 90315,6917.887,95.438,540.805,538.699,0.0
51135.0,STARLINK-3363,PAYLOAD,2023-08-28 21:03:17,15.08841746,0.0001437,53.2168,126.277,87.9807,272.135,2.965e-05,1.84e-06,0.0,0 STARLINK-3363,1 51135U 22005AH  23240.87728974  .00000184  00000-0  29650-4 0  9996,2 51135  53.2168 126.2770 0001437  87.9807 272.1350 15.08841746 89260,6917.875,95.437,540.734,538.746,0.0
51135.0,STARLINK-3363,PAYLOAD,2023-08-29 01:49:26,15.08846386,0.0001364,53.2163,125.3848,96.4032,263.7116,7.8062e-05,9.55e-06,0.0,0 STARLINK-3363,1 51135U 22005AH  23241.07600468  .00000955  00000-0  78062-4 0  9993,2 51135  53.2163 125.3848 0001364  96.4032 263.7116 15.08846386 90415,6917.861,95.437,540.669,538.782,0.0
51135.0,STARLINK-3363,PAYLOAD,2023-08-29 19:18:42,15.08835648,0.0001298,53.2166,122.1144,91.0845,269.0296,-2.45e-05,-6.78e-06,0.0,0 STARLINK-3363,1 51135U 22005AH  23241.80465613 -.00000678  00000-0 -24500-4 0  9997,2 51135  53.2166 122.1144 0001298  91.0845 269.0296 15.08835648 89405,6917.894,95.438,540.657,538.861,0.0
51135.0,STARLINK-3363,PAYLOAD,2023-08-30 01:40:14,15.08841645,0.0001306,53.2167,120.9246,91.261,268.8531,2.2787e-05,7.5e-07,0.0,0 STARLINK-3363,1 51135U 22005AH  23242.06961102  .00000075  00000-0  22787-4 0  9994,2 51135  53.2167 120.9246 0001306  91.2610 268.8531 15.08841645 90569,6917.875,95.437,540.644,538.837,0.0
51135.0,STARLINK-3363,PAYLOAD,2023-08-30 09:37:09,15.08844561,7.64e-05,53.2167,119.4377,91.4837,268.6243,4.6548e-05,4.53e-06,0.0,0 STARLINK-3363,1 51135U 22005AH  23242.40080638  .00000453  00000-0  46548-4 0  9999,2 51135  53.2167 119.4377 0000764  91.4837 268.6243 15.08844561 89495,6917.866,95.437,540.26,539.203,0.0
51135.0,STARLINK-3363,PAYLOAD,2023-08-30 22:20:04,15.08979097,5.28e-05,53.2172,117.0582,105.6557,254.4493,0.0012819,0.0002025,0.0,0 STARLINK-3363,1 51135U 22005AH  23242.93061318  .00020250  00000-0  12819-2 0  9990,2 51135  53.2172 117.0582 0000528 105.6557 254.4493 15.08979097 90695,6917.455,95.429,539.685,538.955,0.0
51135.0,STARLINK-3363,PAYLOAD,2023-08-31 06:17:10,15.08848831,0.0001104,53.2171,115.572,90.6138,269.4981,0.0001011,1.322e-05,0.0,0 STARLINK-3363,1 51135U 22005AH  23243.26192226  .00001322  00000-0  10110-3 0  9992,2 51135  53.2171 115.5720 0001104  90.6138 269.4981 15.08848831 90745,6917.853,95.437,540.482,538.955,0.0
51135.0,STARLINK-3363,PAYLOAD,2023-08-31 23:46:25,15.08839445,0.0001016,53.2163,112.3003,116.8779,243.2317,-6.2639e-06,-3.87e-06,0.0,0 STARLINK-3363,1 51135U 22005AH  23243.99057197 -.00000387  00000-0 -62639-5 0  9996,2 51135  53.2163 112.3003 0001016 116.8779 243.2317 15.08839445 90855,6917.882,95.438,540.45,539.044,0.0
51135.0,STARLINK-3363,PAYLOAD,2023-09-01 07:43:20,15.08861332,8.21e-05,53.2161,110.8166,55.5184,304.5886,-0.00031107,-5.238e-05,0.0,0 STARLINK-3363,1 51135U 22005AH  23244.32176565 -.00005238  00000-0 -31107-3 0  9999,2 51135  53.2161 110.8166 0000821  55.5184 304.5886 15.08861332 90906,6917.815,95.436,540.248,539.112,0.0
